{
    "links": {
        "self": "http://www.neowsapp.com/rest/v1/neo/3451794?api_key=iIulBulltgU6a56xZRHN4H3l9WmuAYTsLGpBGhQ2"
    },
    "id": "3451794",
    "neo_reference_id": "3451794",
    "name": "(2009 FK)",
    "designation": "2009 FK",
    "nasa_jpl_url": "http://ssd.jpl.nasa.gov/sbdb.cgi?sstr=3451794",
    "absolute_magnitude_h": 28.3,
    "estimated_diameter": {
        "kilometers": {
            "estimated_diameter_min": 0.0058150704,
            "estimated_diameter_max": 0.0130028927
        },
        "meters": {
            "estimated_diameter_min": 5.8150703965,
            "estimated_diameter_max": 13.0028927004
        },
        "miles": {
            "estimated_diameter_min": 0.0036133161,
            "estimated_diameter_max": 0.0080796204
        },
        "feet": {
            "estimated_diameter_min": 19.0783155595,
            "estimated_diameter_max": 42.6604104873
        }
    },
    "is_potentially_hazardous_asteroid": false,
    "close_approach_data": [
        {
            "close_approach_date": "1997-11-16",
            "close_approach_date_full": "1997-Nov-16 03:03",
            "epoch_date_close_approach": 879649380000,
            "relative_velocity": {
                "kilometers_per_second": "9.4035465643",
                "kilometers_per_hour": "33852.7676314151",
                "miles_per_hour": "21034.7933096423"
            },
            "miss_distance": {
                "astronomical": "0.099929286",
                "lunar": "38.872492254",
                "kilometers": "14949208.33622082",
                "miles": "9289007.323134516"
            },
            "orbiting_body": "Mars"
        },
        {
            "close_approach_date": "2005-06-27",
            "close_approach_date_full": "2005-Jun-27 22:41",
            "epoch_date_close_approach": 1119912060000,
            "relative_velocity": {
                "kilometers_per_second": "18.6771844572",
                "kilometers_per_hour": "67237.8640458538",
                "miles_per_hour": "41778.9939122695"
            },
            "miss_distance": {
                "astronomical": "0.3929921591",
                "lunar": "152.8739498899",
                "kilometers": "58790789.928061117",
                "miles": "36530902.9008207346"
            },
            "orbiting_body": "Earth"
        },
        {
            "close_approach_date": "2007-06-07",
            "close_approach_date_full": "2007-Jun-07 01:42",
            "epoch_date_close_approach": 1181180520000,
            "relative_velocity": {
                "kilometers_per_second": "9.6382885962",
                "kilometers_per_hour": "34697.8389461703",
                "miles_per_hour": "21559.8877607468"
            },
            "miss_distance": {
                "astronomical": "0.098388062",
                "lunar": "38.272956118",
                "kilometers": "14718644.50862794",
                "miles": "9145741.603987972"
            },
            "orbiting_body": "Earth"
        },
        {
            "close_approach_date": "2009-03-19",
            "close_approach_date_full": "2009-Mar-19 23:15",
            "epoch_date_close_approach": 1237504500000,
            "relative_velocity": {
                "kilometers_per_second": "7.2866402805",
                "kilometers_per_hour": "26231.9050096665",
                "miles_per_hour": "16299.4856433675"
            },
            "miss_distance": {
                "astronomical": "0.0025019801",
                "lunar": "0.9732702589",
                "kilometers": "374290.893742387",
                "miles": "232573.5767914606"
            },
            "orbiting_body": "Earth"
        },
        {
            "close_approach_date": "2009-03-20",
            "close_approach_date_full": "2009-Mar-20 11:29",
            "epoch_date_close_approach": 1237548540000,
            "relative_velocity": {
                "kilometers_per_second": "6.8351562112",
                "kilometers_per_hour": "24606.562360374",
                "miles_per_hour": "15289.5609288669"
            },
            "miss_distance": {
                "astronomical": "0.0010808305",
                "lunar": "0.4204430645",
                "kilometers": "161689.940631035",
                "miles": "100469.470276883"
            },
            "orbiting_body": "Moon"
        }
    ],
    "orbital_data": {
        "orbit_id": "8",
        "orbit_determination_date": "2017-04-06 09:01:01",
        "first_observation_date": "2009-03-17",
        "last_observation_date": "2009-03-19",
        "data_arc_in_days": 2,
        "observations_used": 37,
        "orbit_uncertainty": "7",
        "minimum_orbit_intersection": ".000205246",
        "jupiter_tisserand_invariant": "4.422",
        "epoch_osculation": "2459000.5",
        "eccentricity": ".3695361789849691",
        "semi_major_axis": "1.522186056114105",
        "inclination": "2.815361463699194",
        "ascending_node_longitude": "359.6930087235839",
        "orbital_period": "685.9619651001181",
        "perihelion_distance": ".9596832372334988",
        "perihelion_argument": "210.4597444781908",
        "aphelion_distance": "2.084688874994711",
        "perihelion_time": "2459051.934571228861",
        "mean_anomaly": "333.0066000967159",
        "mean_motion": ".5248104389395074",
        "equinox": "J2000",
        "orbit_class": {
            "orbit_class_type": "APO",
            "orbit_class_description": "Near-Earth asteroid orbits which cross the Earth’s orbit similar to that of 1862 Apollo",
            "orbit_class_range": "a (semi-major axis) > 1.0 AU; q (perihelion) < 1.017 AU"
        }
    },
    "is_sentry_object": false
}